KUIPER-00044            
1 64505U 25134F   25259.38814316  .00003830  00000+0  52946-3 0  9994
2 64505  51.8986 297.3585 0014194  56.4045 303.8271 14.80033578 14076
KUIPER-00046            
1 64506U 25134G   25260.05690645  .00003343  00000+0  46818-3 0  9998
2 64506  51.8988 290.7638 0012705  71.6663 288.5680 14.79843168 14228
KUIPER-00047            
1 64507U 25134H   25259.76444902  .00039977  00000+0  11392-2 0  9998
2 64507  51.8612 280.1204 0012390  70.2007 290.0314 15.35620635 14342
KUIPER-00048            
1 64508U 25134J   25260.03777205  .00042597  00000+0  11254-2 0  9995
2 64508  51.8755 277.5992 0006753  54.4296 305.7320 15.37993593 14401
KUIPER-00049            
1 64509U 25134K   25260.25009259 -.00964666  00000+0 -58413-1 0  9996
2 64509  51.8860 278.8776 0008598  46.0190  31.0142 15.13016163  5338
KUIPER-00050            
1 64510U 25134L   25260.25009259 -.00078075  00000+0 -47093-2 0  9991
2 64510  51.8811 279.9072 0007909  79.3345 213.6273 15.10522443  3479
KUIPER-00051            
1 64511U 25134M   25260.25009259 -.00638904  00000+0 -31603-1 0  9994
2 64511  51.8843 278.2983 0007753  44.3340 261.8987 15.19831397  5279
KUIPER-00052            
1 64512U 25134N   25259.47033772  .00120122  00000+0  15978-2 0  9998
2 64512  51.8723 273.8963 0006824  60.9219 299.2459 15.57261325 14407
