<?xml version="1.0" encoding="UTF-8"?>
<ndm xmlns:xsi="http://www.w3.org/2001/XMLSchema-instance" xsi:noNamespaceSchemaLocation="https://sanaregistry.org/r/ndmxml_unqualified/ndmxml-2.0.0-master-2.0.xsd">
<omm id="CCSDS_OMM_VERS" version="2.0">
<header><CREATION_DATE/><ORIGINATOR/></header><body><segment><metadata><OBJECT_NAME>KUIPER-00044</OBJECT_NAME><OBJECT_ID>2025-134F</OBJECT_ID><CENTER_NAME>EARTH</CENTER_NAME><REF_FRAME>TEME</REF_FRAME><TIME_SYSTEM>UTC</TIME_SYSTEM><MEAN_ELEMENT_THEORY>SGP4</MEAN_ELEMENT_THEORY></metadata><data><meanElements><EPOCH>2025-09-16T09:18:55.569024</EPOCH><MEAN_MOTION>14.80033578</MEAN_MOTION><ECCENTRICITY>.00141949</ECCENTRICITY><INCLINATION>51.8986</INCLINATION><RA_OF_ASC_NODE>297.3585</RA_OF_ASC_NODE><ARG_OF_PERICENTER>56.4045</ARG_OF_PERICENTER><MEAN_ANOMALY>303.8271</MEAN_ANOMALY></meanElements><tleParameters><EPHEMERIS_TYPE>0</EPHEMERIS_TYPE><CLASSIFICATION_TYPE>U</CLASSIFICATION_TYPE><NORAD_CAT_ID>64505</NORAD_CAT_ID><ELEMENT_SET_NO>999</ELEMENT_SET_NO><REV_AT_EPOCH>1407</REV_AT_EPOCH><BSTAR>.52946276E-3</BSTAR><MEAN_MOTION_DOT>.383E-4</MEAN_MOTION_DOT><MEAN_MOTION_DDOT>0</MEAN_MOTION_DDOT></tleParameters></data></segment></body></omm>
<omm id="CCSDS_OMM_VERS" version="2.0">
<header><CREATION_DATE/><ORIGINATOR/></header><body><segment><metadata><OBJECT_NAME>KUIPER-00046</OBJECT_NAME><OBJECT_ID>2025-134G</OBJECT_ID><CENTER_NAME>EARTH</CENTER_NAME><REF_FRAME>TEME</REF_FRAME><TIME_SYSTEM>UTC</TIME_SYSTEM><MEAN_ELEMENT_THEORY>SGP4</MEAN_ELEMENT_THEORY></metadata><data><meanElements><EPOCH>2025-09-17T01:21:56.717280</EPOCH><MEAN_MOTION>14.79843168</MEAN_MOTION><ECCENTRICITY>.0012705</ECCENTRICITY><INCLINATION>51.8988</INCLINATION><RA_OF_ASC_NODE>290.7638</RA_OF_ASC_NODE><ARG_OF_PERICENTER>71.6663</ARG_OF_PERICENTER><MEAN_ANOMALY>288.5680</MEAN_ANOMALY></meanElements><tleParameters><EPHEMERIS_TYPE>0</EPHEMERIS_TYPE><CLASSIFICATION_TYPE>U</CLASSIFICATION_TYPE><NORAD_CAT_ID>64506</NORAD_CAT_ID><ELEMENT_SET_NO>999</ELEMENT_SET_NO><REV_AT_EPOCH>1422</REV_AT_EPOCH><BSTAR>.46817542E-3</BSTAR><MEAN_MOTION_DOT>.3343E-4</MEAN_MOTION_DOT><MEAN_MOTION_DDOT>0</MEAN_MOTION_DDOT></tleParameters></data></segment></body></omm>
<omm id="CCSDS_OMM_VERS" version="2.0">
<header><CREATION_DATE/><ORIGINATOR/></header><body><segment><metadata><OBJECT_NAME>KUIPER-00047</OBJECT_NAME><OBJECT_ID>2025-134H</OBJECT_ID><CENTER_NAME>EARTH</CENTER_NAME><REF_FRAME>TEME</REF_FRAME><TIME_SYSTEM>UTC</TIME_SYSTEM><MEAN_ELEMENT_THEORY>SGP4</MEAN_ELEMENT_THEORY></metadata><data><meanElements><EPOCH>2025-09-16T18:20:48.395328</EPOCH><MEAN_MOTION>15.35620635</MEAN_MOTION><ECCENTRICITY>.00123904</ECCENTRICITY><INCLINATION>51.8612</INCLINATION><RA_OF_ASC_NODE>280.1204</RA_OF_ASC_NODE><ARG_OF_PERICENTER>70.2007</ARG_OF_PERICENTER><MEAN_ANOMALY>290.0314</MEAN_ANOMALY></meanElements><tleParameters><EPHEMERIS_TYPE>0</EPHEMERIS_TYPE><CLASSIFICATION_TYPE>U</CLASSIFICATION_TYPE><NORAD_CAT_ID>64507</NORAD_CAT_ID><ELEMENT_SET_NO>999</ELEMENT_SET_NO><REV_AT_EPOCH>1434</REV_AT_EPOCH><BSTAR>.11392013E-2</BSTAR><MEAN_MOTION_DOT>.39977E-3</MEAN_MOTION_DOT><MEAN_MOTION_DDOT>0</MEAN_MOTION_DDOT></tleParameters></data></segment></body></omm>
<omm id="CCSDS_OMM_VERS" version="2.0">
<header><CREATION_DATE/><ORIGINATOR/></header><body><segment><metadata><OBJECT_NAME>KUIPER-00048</OBJECT_NAME><OBJECT_ID>2025-134J</OBJECT_ID><CENTER_NAME>EARTH</CENTER_NAME><REF_FRAME>TEME</REF_FRAME><TIME_SYSTEM>UTC</TIME_SYSTEM><MEAN_ELEMENT_THEORY>SGP4</MEAN_ELEMENT_THEORY></metadata><data><meanElements><EPOCH>2025-09-17T00:54:23.505120</EPOCH><MEAN_MOTION>15.37993593</MEAN_MOTION><ECCENTRICITY>.00067534</ECCENTRICITY><INCLINATION>51.8755</INCLINATION><RA_OF_ASC_NODE>277.5992</RA_OF_ASC_NODE><ARG_OF_PERICENTER>54.4296</ARG_OF_PERICENTER><MEAN_ANOMALY>305.7320</MEAN_ANOMALY></meanElements><tleParameters><EPHEMERIS_TYPE>0</EPHEMERIS_TYPE><CLASSIFICATION_TYPE>U</CLASSIFICATION_TYPE><NORAD_CAT_ID>64508</NORAD_CAT_ID><ELEMENT_SET_NO>999</ELEMENT_SET_NO><REV_AT_EPOCH>1440</REV_AT_EPOCH><BSTAR>.11254238E-2</BSTAR><MEAN_MOTION_DOT>.42597E-3</MEAN_MOTION_DOT><MEAN_MOTION_DDOT>0</MEAN_MOTION_DDOT></tleParameters></data></segment></body></omm>
<omm id="CCSDS_OMM_VERS" version="2.0">
<header><CREATION_DATE/><ORIGINATOR/></header><body><segment><metadata><OBJECT_NAME>KUIPER-00049</OBJECT_NAME><OBJECT_ID>2025-134K</OBJECT_ID><CENTER_NAME>EARTH</CENTER_NAME><REF_FRAME>TEME</REF_FRAME><TIME_SYSTEM>UTC</TIME_SYSTEM><MEAN_ELEMENT_THEORY>SGP4</MEAN_ELEMENT_THEORY></metadata><data><meanElements><EPOCH>2025-09-17T06:00:07.999776</EPOCH><MEAN_MOTION>15.13016163</MEAN_MOTION><ECCENTRICITY>.00085981</ECCENTRICITY><INCLINATION>51.8860</INCLINATION><RA_OF_ASC_NODE>278.8776</RA_OF_ASC_NODE><ARG_OF_PERICENTER>46.0190</ARG_OF_PERICENTER><MEAN_ANOMALY>31.0142</MEAN_ANOMALY></meanElements><tleParameters><EPHEMERIS_TYPE>0</EPHEMERIS_TYPE><CLASSIFICATION_TYPE>U</CLASSIFICATION_TYPE><NORAD_CAT_ID>64509</NORAD_CAT_ID><ELEMENT_SET_NO>999</ELEMENT_SET_NO><REV_AT_EPOCH>533</REV_AT_EPOCH><BSTAR>-.58412702E-1</BSTAR><MEAN_MOTION_DOT>-.964666E-2</MEAN_MOTION_DOT><MEAN_MOTION_DDOT>0</MEAN_MOTION_DDOT></tleParameters></data></segment></body></omm>
<omm id="CCSDS_OMM_VERS" version="2.0">
<header><CREATION_DATE/><ORIGINATOR/></header><body><segment><metadata><OBJECT_NAME>KUIPER-00050</OBJECT_NAME><OBJECT_ID>2025-134L</OBJECT_ID><CENTER_NAME>EARTH</CENTER_NAME><REF_FRAME>TEME</REF_FRAME><TIME_SYSTEM>UTC</TIME_SYSTEM><MEAN_ELEMENT_THEORY>SGP4</MEAN_ELEMENT_THEORY></metadata><data><meanElements><EPOCH>2025-09-17T06:00:07.999776</EPOCH><MEAN_MOTION>15.10522443</MEAN_MOTION><ECCENTRICITY>.00079094</ECCENTRICITY><INCLINATION>51.8811</INCLINATION><RA_OF_ASC_NODE>279.9072</RA_OF_ASC_NODE><ARG_OF_PERICENTER>79.3345</ARG_OF_PERICENTER><MEAN_ANOMALY>213.6273</MEAN_ANOMALY></meanElements><tleParameters><EPHEMERIS_TYPE>0</EPHEMERIS_TYPE><CLASSIFICATION_TYPE>U</CLASSIFICATION_TYPE><NORAD_CAT_ID>64510</NORAD_CAT_ID><ELEMENT_SET_NO>999</ELEMENT_SET_NO><REV_AT_EPOCH>347</REV_AT_EPOCH><BSTAR>-.47093471E-2</BSTAR><MEAN_MOTION_DOT>-.78075E-3</MEAN_MOTION_DOT><MEAN_MOTION_DDOT>0</MEAN_MOTION_DDOT></tleParameters></data></segment></body></omm>
<omm id="CCSDS_OMM_VERS" version="2.0">
<header><CREATION_DATE/><ORIGINATOR/></header><body><segment><metadata><OBJECT_NAME>KUIPER-00051</OBJECT_NAME><OBJECT_ID>2025-134M</OBJECT_ID><CENTER_NAME>EARTH</CENTER_NAME><REF_FRAME>TEME</REF_FRAME><TIME_SYSTEM>UTC</TIME_SYSTEM><MEAN_ELEMENT_THEORY>SGP4</MEAN_ELEMENT_THEORY></metadata><data><meanElements><EPOCH>2025-09-17T06:00:07.999776</EPOCH><MEAN_MOTION>15.19831397</MEAN_MOTION><ECCENTRICITY>.00077534</ECCENTRICITY><INCLINATION>51.8843</INCLINATION><RA_OF_ASC_NODE>278.2983</RA_OF_ASC_NODE><ARG_OF_PERICENTER>44.3340</ARG_OF_PERICENTER><MEAN_ANOMALY>261.8987</MEAN_ANOMALY></meanElements><tleParameters><EPHEMERIS_TYPE>0</EPHEMERIS_TYPE><CLASSIFICATION_TYPE>U</CLASSIFICATION_TYPE><NORAD_CAT_ID>64511</NORAD_CAT_ID><ELEMENT_SET_NO>999</ELEMENT_SET_NO><REV_AT_EPOCH>527</REV_AT_EPOCH><BSTAR>-.31602824E-1</BSTAR><MEAN_MOTION_DOT>-.638904E-2</MEAN_MOTION_DOT><MEAN_MOTION_DDOT>0</MEAN_MOTION_DDOT></tleParameters></data></segment></body></omm>
<omm id="CCSDS_OMM_VERS" version="2.0">
<header><CREATION_DATE/><ORIGINATOR/></header><body><segment><metadata><OBJECT_NAME>KUIPER-00052</OBJECT_NAME><OBJECT_ID>2025-134N</OBJECT_ID><CENTER_NAME>EARTH</CENTER_NAME><REF_FRAME>TEME</REF_FRAME><TIME_SYSTEM>UTC</TIME_SYSTEM><MEAN_ELEMENT_THEORY>SGP4</MEAN_ELEMENT_THEORY></metadata><data><meanElements><EPOCH>2025-09-16T11:17:17.179008</EPOCH><MEAN_MOTION>15.57261325</MEAN_MOTION><ECCENTRICITY>.00068249</ECCENTRICITY><INCLINATION>51.8723</INCLINATION><RA_OF_ASC_NODE>273.8963</RA_OF_ASC_NODE><ARG_OF_PERICENTER>60.9219</ARG_OF_PERICENTER><MEAN_ANOMALY>299.2459</MEAN_ANOMALY></meanElements><tleParameters><EPHEMERIS_TYPE>0</EPHEMERIS_TYPE><CLASSIFICATION_TYPE>U</CLASSIFICATION_TYPE><NORAD_CAT_ID>64512</NORAD_CAT_ID><ELEMENT_SET_NO>999</ELEMENT_SET_NO><REV_AT_EPOCH>1440</REV_AT_EPOCH><BSTAR>.15978443E-2</BSTAR><MEAN_MOTION_DOT>.120122E-2</MEAN_MOTION_DOT><MEAN_MOTION_DDOT>0</MEAN_MOTION_DDOT></tleParameters></data></segment></body></omm>

</ndm>
